*******************************************************************************
 Revised: Jan 23, 2020              Telesto  / (Saturn)                     613
                           http://ssd.jpl.nasa.gov/?sat_phys_par
                             http://ssd.jpl.nasa.gov/?sat_elem

 SATELLITE PHYSICAL PROPERTIES:
  Radius (km)             = 15 x 12.5 x 7.5 Density (g cm^-3)   =  1.0
  Mass (10^22 g)          = 0.0007194       Geometric Albedo    =  1.0  
  GM (km^3/s^2)           = 0.00048         V(1,0)              = +9.1 

 SATELLITE ORBITAL DATA (mean values with respect to local Laplace plane):
  Semi-major axis, a (km) = 294.710(10^3)   Orbital period      = 1.887802 d
  Eccentricity, e         = 0.0002          Rotational period   = 
  Inclination, i  (deg)   = 1.180   

 NOTE: The IAU rotational spin-pole model (defining latitude and logitude) is 
       valid only near the time of the 1981 Voyager flybys; an updated
       Cassini-based coordinate grid model is not yet published by the IAU.

      Trajectory is valid only for the interval spanned by Cassini data.
*******************************************************************************
 
 
*******************************************************************************
Ephemeris / WWW_USER Fri Jun 19 18:28:07 2020 Pasadena, USA      / Horizons
*******************************************************************************
Target body name: Telesto (613)                   {source: sat427l_merged_DE438}
Center body name: Solar System Barycenter (0)     {source: DE431mx}
Center-site name: BODY CENTER
*******************************************************************************
Start time      : A.D. 1969-Jun-28 00:00:00.0000 TDB
Stop  time      : A.D. 2071-May-04 00:00:00.0000 TDB
Step-size       : 7200 minutes
*******************************************************************************
Center geodetic : 0.00000000,0.00000000,0.0000000 {E-lon(deg),Lat(deg),Alt(km)}
Center cylindric: 0.00000000,0.00000000,0.0000000 {E-lon(deg),Dxy(km),Dz(km)}
Center radii    : (undefined)                                                  
Output units    : AU-D
Output type     : GEOMETRIC cartesian states
Output format   : 2 (position and velocity)
Reference frame : Ecliptic of J2000.0
*******************************************************************************
            JDTDB,            Calendar Date (TDB),        delta-T,                      X,                      Y,                      Z,                     VX,                     VY,                     VZ,
******************************************************************************************************************************************************************************************************************
$$SOE
2453600.500000000, A.D. 2005-Aug-18 00:00:00.0000,      64.182858, -4.781014817129199E+00,  7.722844362180326E+00,  5.643466476281040E-02, -6.359743183639852E-04,  1.231675740038340E-03, -2.213179399553756E-03,
2453605.500000000, A.D. 2005-Aug-23 00:00:00.0000,      64.182758, -4.809575727769904E+00,  7.709012416850298E+00,  5.747754651429799E-02, -3.773178409803724E-03, -8.745874713721444E-03,  3.079281145107953E-03,
2453610.500000000, A.D. 2005-Aug-28 00:00:00.0000,      64.182668, -4.831939552573459E+00,  7.695984205381211E+00,  5.758746649787543E-02, -1.092551730630544E-02, -2.779257616411104E-04, -6.527044739700363E-04,
2453615.500000000, A.D. 2005-Sep-02 00:00:00.0000,      64.182590, -4.856947936252444E+00,  7.677901282785283E+00,  6.043261047403913E-02,  7.629625952282602E-04, -4.349582283485715E-04, -1.500022622667123E-03,
2453620.500000000, A.D. 2005-Sep-07 00:00:00.0000,      64.182522, -4.884849562682997E+00,  7.664791058862455E+00,  6.094809898268374E-02, -5.978137479325603E-03, -8.761825837845304E-03,  3.245555204202204E-03,
2453625.500000000, A.D. 2005-Sep-12 00:00:00.0000,      64.182464, -4.906506821310642E+00,  7.650572214209626E+00,  6.150142644439498E-02, -9.606149449415695E-03,  1.262291013752653E-03, -1.565886995365097E-03,
2453630.500000000, A.D. 2005-Sep-17 00:00:00.0000,      64.182415, -4.932556330482301E+00,  7.632460833359968E+00,  6.433984206902305E-02,  1.487659344547632E-03, -2.396730589230433E-03, -5.793520597623485E-04,
2453635.500000000, A.D. 2005-Sep-22 00:00:00.0000,      64.182378, -4.959463372213063E+00,  7.619851338283866E+00,  6.441387535194923E-02, -8.068321275579285E-03, -8.108308877022493E-03,  3.059702082512843E-03,
2453640.500000000, A.D. 2005-Sep-27 00:00:00.0000,      64.182354, -4.980801323330195E+00,  7.604343624335048E+00,  6.549402667977619E-02, -7.751346190512664E-03,  2.300944538275260E-03, -2.266583968803257E-03,
2453645.500000000, A.D. 2005-Oct-02 00:00:00.0000,      64.182343, -5.007760695059836E+00,  7.586546613927928E+00,  6.813998615076472E-02,  1.459910299287519E-03, -4.431848882166411E-03,  4.415584223917578E-04,
2453650.500000000, A.D. 2005-Oct-07 00:00:00.0000,      64.182344, -5.033436558905248E+00,  7.574131795052875E+00,  6.791065422939113E-02, -9.795438890141167E-03, -6.868829163163548E-03,  2.543524889769600E-03,
2453655.500000000, A.D. 2005-Oct-12 00:00:00.0000,      64.182357, -5.054860354467632E+00,  7.557360543215503E+00,  6.953907698936908E-02, -5.572387481475026E-03,  2.715222177323488E-03, -2.673655783753966E-03,
2453660.500000000, A.D. 2005-Oct-17 00:00:00.0000,      64.182381, -5.082474834787815E+00,  7.540158300178000E+00,  7.182848796527780E-02,  6.877709524217220E-04, -6.306434457005545E-03,  1.441726488384083E-03,
2453665.500000000, A.D. 2005-Oct-22 00:00:00.0000,      64.182416, -5.106810995641386E+00,  7.527585282012508E+00,  7.146887423121859E-02, -1.095663494320087E-02, -5.193782610444800E-03,  1.757234034068990E-03,
2453670.500000000, A.D. 2005-Oct-27 00:00:00.0000,      64.182464, -5.128698870158979E+00,  7.509696628458598E+00,  7.360253490049525E-02, -3.322008353841752E-03,  2.454611433035010E-03, -2.739703487864191E-03,
2453675.500000000, A.D. 2005-Nov-01 00:00:00.0000,      64.182526, -5.156621558477156E+00,  7.493272472291051E+00,  7.541349676391351E-02, -7.356983686731840E-04, -7.810264947146182E-03,  2.304984697936200E-03,
2453680.500000000, A.D. 2005-Nov-06 00:00:00.0000,      64.182599, -5.179646848397718E+00,  7.480181380711095E+00,  7.511189254493748E-02, -1.141628375465313E-02, -3.285327685092367E-03,  7.935433226977861E-04,
2453685.500000000, A.D. 2005-Nov-11 00:00:00.0000,      64.182681, -5.202303497823092E+00,  7.461424682493817E+00,  7.764835100101149E-02, -1.256500549607109E-03,  1.544971963719258E-03, -2.456467894656451E-03,
2453690.500000000, A.D. 2005-Nov-16 00:00:00.0000,      64.182772, -5.230135375807325E+00,  7.445846387752474E+00,  7.891416086766637E-02, -2.638609153069684E-03, -8.775552344569906E-03,  2.930299416638853E-03,
2453695.500000000, A.D. 2005-Nov-21 00:00:00.0000,      64.182872, -5.252014248126835E+00,  7.431913702798275E+00,  7.885151320079892E-02, -1.111877665331468E-02, -1.370815960517112E-03, -2.348720213368315E-04,
2453700.500000000, A.D. 2005-Nov-26 00:00:00.0000,      64.182982, -5.275637465859204E+00,  7.412611088016289E+00,  8.164177206303534E-02,  3.909784339632404E-04,  8.963799128231801E-05, -1.857712500378824E-03,
2453705.500000000, A.D. 2005-Dec-01 00:00:00.0000,      64.183101, -5.302972959623386E+00,  7.397822452727359E+00,  8.235921181872806E-02, -4.796049034016498E-03, -9.096770355395273E-03,  3.244331539541579E-03,
2453710.500000000, A.D. 2005-Dec-06 00:00:00.0000,      64.183227, -5.323982271396905E+00,  7.382797685955217E+00,  8.268817681384212E-02, -1.009872399466066E-02,  3.261622316683460E-04, -1.209565147723063E-03,
2453715.500000000, A.D. 2005-Dec-11 00:00:00.0000,      64.183358, -5.348639862461544E+00,  7.363308795505186E+00,  8.555297292564035E-02,  1.433243494039120E-03, -1.745942621702082E-03, -1.013323166014450E-03,
2453720.500000000, A.D. 2005-Dec-16 00:00:00.0000,      64.183492, -5.375115158344659E+00,  7.349138209036498E+00,  8.578203413093453E-02, -6.955471274612284E-03, -8.745457794124379E-03,  3.211229905366150E-03,
2453725.500000000, A.D. 2005-Dec-21 00:00:00.0000,      64.183630, -5.395614789995527E+00,  7.332872530844798E+00,  8.660960374204016E-02, -8.474169540981522E-03,  1.604608837002427E-03, -2.016662323782230E-03,
2453730.500000000, A.D. 2005-Dec-26 00:00:00.0000,      64.183773, -5.421237261614758E+00,  7.313550461381912E+00,  8.936161973986959E-02,  1.757448834944018E-03, -3.756486200464248E-03, -2.018643669447132E-05,
2453735.500000000, A.D. 2005-Dec-31 00:00:00.0000,      64.183918, -5.446569501741309E+00,  7.299730452436826E+00,  8.921872085687453E-02, -8.863381081970509E-03, -7.770736820956476E-03,  2.835350968410567E-03,
2453740.500000000, A.D. 2006-Jan-05 00:00:00.0000,      65.184064, -5.466956868091203E+00,  7.282193975251336E+00,  9.059340641364924E-02, -6.427581222840588E-03,  2.316040490252727E-03, -2.563989553113391E-03,
2453745.500000000, A.D. 2006-Jan-10 00:00:00.0000,      65.184208, -5.493346412163381E+00,  7.263347407768998E+00,  9.305768008783794E-02,  1.332499291457340E-03, -5.713743119652041E-03,  1.005912763848612E-03,
2453750.500000000, A.D. 2006-Jan-15 00:00:00.0000,      65.184349, -5.517368505336300E+00,  7.249547268288850E+00,  9.270168351384499E-02, -1.029812658950106E-02, -6.291315469888040E-03,  2.159867509345384E-03,
2453755.500000000, A.D. 2006-Jan-20 00:00:00.0000,      65.184488, -5.538034560280063E+00,  7.230830232489969E+00,  9.460910121226716E-02, -4.192566115731367E-03,  2.377662556367700E-03, -2.789167791896822E-03,
2453760.500000000, A.D. 2006-Jan-25 00:00:00.0000,      65.184624, -5.564887961720848E+00,  7.212686795500532E+00,  9.664399951518660E-02,  2.115331804003864E-04, -7.399656338164207E-03,  1.947296534137166E-03,
